<?xml version="1.0" encoding="UTF-8"?>
<ndm xmlns:xsi="http://www.w3.org/2001/XMLSchema-instance" xsi:noNamespaceSchemaLocation="https://sanaregistry.org/r/ndmxml_unqualified/ndmxml-2.0.0-master-2.0.xsd">
<omm id="CCSDS_OMM_VERS" version="2.0">
<header><CREATION_DATE/><ORIGINATOR/></header><body><segment><metadata><OBJECT_NAME>ORBCOMM FM33</OBJECT_NAME><OBJECT_ID>1999-065D</OBJECT_ID><CENTER_NAME>EARTH</CENTER_NAME><REF_FRAME>TEME</REF_FRAME><TIME_SYSTEM>UTC</TIME_SYSTEM><MEAN_ELEMENT_THEORY>SGP4</MEAN_ELEMENT_THEORY></metadata><data><meanElements><EPOCH>2025-10-01T05:35:12.345792</EPOCH><MEAN_MOTION>14.40240362</MEAN_MOTION><ECCENTRICITY>.0008861</ECCENTRICITY><INCLINATION>45.0268</INCLINATION><RA_OF_ASC_NODE>214.7031</RA_OF_ASC_NODE><ARG_OF_PERICENTER>249.4227</ARG_OF_PERICENTER><MEAN_ANOMALY>110.5672</MEAN_ANOMALY></meanElements><tleParameters><EPHEMERIS_TYPE>0</EPHEMERIS_TYPE><CLASSIFICATION_TYPE>U</CLASSIFICATION_TYPE><NORAD_CAT_ID>25983</NORAD_CAT_ID><ELEMENT_SET_NO>999</ELEMENT_SET_NO><REV_AT_EPOCH>35135</REV_AT_EPOCH><BSTAR>.12077E-2</BSTAR><MEAN_MOTION_DOT>.3719E-4</MEAN_MOTION_DOT><MEAN_MOTION_DDOT>0</MEAN_MOTION_DDOT></tleParameters></data></segment></body></omm>
<omm id="CCSDS_OMM_VERS" version="2.0">
<header><CREATION_DATE/><ORIGINATOR/></header><body><segment><metadata><OBJECT_NAME>ORBCOMM FM36</OBJECT_NAME><OBJECT_ID>1999-065E</OBJECT_ID><CENTER_NAME>EARTH</CENTER_NAME><REF_FRAME>TEME</REF_FRAME><TIME_SYSTEM>UTC</TIME_SYSTEM><MEAN_ELEMENT_THEORY>SGP4</MEAN_ELEMENT_THEORY></metadata><data><meanElements><EPOCH>2025-10-01T09:42:43.857792</EPOCH><MEAN_MOTION>14.38400569</MEAN_MOTION><ECCENTRICITY>.0001726</ECCENTRICITY><INCLINATION>45.0391</INCLINATION><RA_OF_ASC_NODE>307.4398</RA_OF_ASC_NODE><ARG_OF_PERICENTER>175.2600</ARG_OF_PERICENTER><MEAN_ANOMALY>184.8265</MEAN_ANOMALY></meanElements><tleParameters><EPHEMERIS_TYPE>0</EPHEMERIS_TYPE><CLASSIFICATION_TYPE>U</CLASSIFICATION_TYPE><NORAD_CAT_ID>25984</NORAD_CAT_ID><ELEMENT_SET_NO>999</ELEMENT_SET_NO><REV_AT_EPOCH>34971</REV_AT_EPOCH><BSTAR>.10912E-2</BSTAR><MEAN_MOTION_DOT>.3217E-4</MEAN_MOTION_DOT><MEAN_MOTION_DDOT>0</MEAN_MOTION_DDOT></tleParameters></data></segment></body></omm>
<omm id="CCSDS_OMM_VERS" version="2.0">
<header><CREATION_DATE/><ORIGINATOR/></header><body><segment><metadata><OBJECT_NAME>ORBCOMM FM35</OBJECT_NAME><OBJECT_ID>1999-065F</OBJECT_ID><CENTER_NAME>EARTH</CENTER_NAME><REF_FRAME>TEME</REF_FRAME><TIME_SYSTEM>UTC</TIME_SYSTEM><MEAN_ELEMENT_THEORY>SGP4</MEAN_ELEMENT_THEORY></metadata><data><meanElements><EPOCH>2025-10-01T09:24:14.842080</EPOCH><MEAN_MOTION>14.37338363</MEAN_MOTION><ECCENTRICITY>.0005576</ECCENTRICITY><INCLINATION>45.0396</INCLINATION><RA_OF_ASC_NODE>313.3860</RA_OF_ASC_NODE><ARG_OF_PERICENTER>227.2571</ARG_OF_PERICENTER><MEAN_ANOMALY>132.7809</MEAN_ANOMALY></meanElements><tleParameters><EPHEMERIS_TYPE>0</EPHEMERIS_TYPE><CLASSIFICATION_TYPE>U</CLASSIFICATION_TYPE><NORAD_CAT_ID>25985</NORAD_CAT_ID><ELEMENT_SET_NO>999</ELEMENT_SET_NO><REV_AT_EPOCH>35006</REV_AT_EPOCH><BSTAR>.9236E-3</BSTAR><MEAN_MOTION_DOT>.2641E-4</MEAN_MOTION_DOT><MEAN_MOTION_DDOT>0</MEAN_MOTION_DDOT></tleParameters></data></segment></body></omm>
<omm id="CCSDS_OMM_VERS" version="2.0">
<header><CREATION_DATE/><ORIGINATOR/></header><body><segment><metadata><OBJECT_NAME>ORBCOMM FM34</OBJECT_NAME><OBJECT_ID>1999-065G</OBJECT_ID><CENTER_NAME>EARTH</CENTER_NAME><REF_FRAME>TEME</REF_FRAME><TIME_SYSTEM>UTC</TIME_SYSTEM><MEAN_ELEMENT_THEORY>SGP4</MEAN_ELEMENT_THEORY></metadata><data><meanElements><EPOCH>2025-10-01T10:14:11.860224</EPOCH><MEAN_MOTION>14.37332428</MEAN_MOTION><ECCENTRICITY>.0004175</ECCENTRICITY><INCLINATION>45.0389</INCLINATION><RA_OF_ASC_NODE>313.6767</RA_OF_ASC_NODE><ARG_OF_PERICENTER>191.6565</ARG_OF_PERICENTER><MEAN_ANOMALY>168.4187</MEAN_ANOMALY></meanElements><tleParameters><EPHEMERIS_TYPE>0</EPHEMERIS_TYPE><CLASSIFICATION_TYPE>U</CLASSIFICATION_TYPE><NORAD_CAT_ID>25986</NORAD_CAT_ID><ELEMENT_SET_NO>999</ELEMENT_SET_NO><REV_AT_EPOCH>35018</REV_AT_EPOCH><BSTAR>.90265E-3</BSTAR><MEAN_MOTION_DOT>.2577E-4</MEAN_MOTION_DOT><MEAN_MOTION_DDOT>0</MEAN_MOTION_DDOT></tleParameters></data></segment></body></omm>
<omm id="CCSDS_OMM_VERS" version="2.0">
<header><CREATION_DATE/><ORIGINATOR/></header><body><segment><metadata><OBJECT_NAME>ORBCOMM FM38</OBJECT_NAME><OBJECT_ID>2008-031A</OBJECT_ID><CENTER_NAME>EARTH</CENTER_NAME><REF_FRAME>TEME</REF_FRAME><TIME_SYSTEM>UTC</TIME_SYSTEM><MEAN_ELEMENT_THEORY>SGP4</MEAN_ELEMENT_THEORY></metadata><data><meanElements><EPOCH>2025-10-01T10:30:00.343008</EPOCH><MEAN_MOTION>14.81772813</MEAN_MOTION><ECCENTRICITY>.0004705</ECCENTRICITY><INCLINATION>48.4386</INCLINATION><RA_OF_ASC_NODE>168.7526</RA_OF_ASC_NODE><ARG_OF_PERICENTER>141.7734</ARG_OF_PERICENTER><MEAN_ANOMALY>218.3516</MEAN_ANOMALY></meanElements><tleParameters><EPHEMERIS_TYPE>0</EPHEMERIS_TYPE><CLASSIFICATION_TYPE>U</CLASSIFICATION_TYPE><NORAD_CAT_ID>33060</NORAD_CAT_ID><ELEMENT_SET_NO>999</ELEMENT_SET_NO><REV_AT_EPOCH>93050</REV_AT_EPOCH><BSTAR>.73452E-3</BSTAR><MEAN_MOTION_DOT>.565E-4</MEAN_MOTION_DOT><MEAN_MOTION_DDOT>0</MEAN_MOTION_DDOT></tleParameters></data></segment></body></omm>
<omm id="CCSDS_OMM_VERS" version="2.0">
<header><CREATION_DATE/><ORIGINATOR/></header><body><segment><metadata><OBJECT_NAME>ORBCOMM FM41</OBJECT_NAME><OBJECT_ID>2008-031B</OBJECT_ID><CENTER_NAME>EARTH</CENTER_NAME><REF_FRAME>TEME</REF_FRAME><TIME_SYSTEM>UTC</TIME_SYSTEM><MEAN_ELEMENT_THEORY>SGP4</MEAN_ELEMENT_THEORY></metadata><data><meanElements><EPOCH>2025-10-01T12:04:24.854016</EPOCH><MEAN_MOTION>14.81343442</MEAN_MOTION><ECCENTRICITY>.0003831</ECCENTRICITY><INCLINATION>48.4421</INCLINATION><RA_OF_ASC_NODE>176.5900</RA_OF_ASC_NODE><ARG_OF_PERICENTER>125.1339</ARG_OF_PERICENTER><MEAN_ANOMALY>45.9362</MEAN_ANOMALY></meanElements><tleParameters><EPHEMERIS_TYPE>0</EPHEMERIS_TYPE><CLASSIFICATION_TYPE>U</CLASSIFICATION_TYPE><NORAD_CAT_ID>33061</NORAD_CAT_ID><ELEMENT_SET_NO>999</ELEMENT_SET_NO><REV_AT_EPOCH>92999</REV_AT_EPOCH><BSTAR>.68415E-3</BSTAR><MEAN_MOTION_DOT>.5192E-4</MEAN_MOTION_DOT><MEAN_MOTION_DDOT>0</MEAN_MOTION_DDOT></tleParameters></data></segment></body></omm>
<omm id="CCSDS_OMM_VERS" version="2.0">
<header><CREATION_DATE/><ORIGINATOR/></header><body><segment><metadata><OBJECT_NAME>ORBCOMM FM29</OBJECT_NAME><OBJECT_ID>2008-031C</OBJECT_ID><CENTER_NAME>EARTH</CENTER_NAME><REF_FRAME>TEME</REF_FRAME><TIME_SYSTEM>UTC</TIME_SYSTEM><MEAN_ELEMENT_THEORY>SGP4</MEAN_ELEMENT_THEORY></metadata><data><meanElements><EPOCH>2025-10-01T11:30:15.869376</EPOCH><MEAN_MOTION>14.81464284</MEAN_MOTION><ECCENTRICITY>.0005502</ECCENTRICITY><INCLINATION>48.4372</INCLINATION><RA_OF_ASC_NODE>184.3779</RA_OF_ASC_NODE><ARG_OF_PERICENTER>123.0905</ARG_OF_PERICENTER><MEAN_ANOMALY>47.2505</MEAN_ANOMALY></meanElements><tleParameters><EPHEMERIS_TYPE>0</EPHEMERIS_TYPE><CLASSIFICATION_TYPE>U</CLASSIFICATION_TYPE><NORAD_CAT_ID>33062</NORAD_CAT_ID><ELEMENT_SET_NO>999</ELEMENT_SET_NO><REV_AT_EPOCH>92990</REV_AT_EPOCH><BSTAR>.72091E-3</BSTAR><MEAN_MOTION_DOT>.5499E-4</MEAN_MOTION_DOT><MEAN_MOTION_DDOT>0</MEAN_MOTION_DDOT></tleParameters></data></segment></body></omm>
<omm id="CCSDS_OMM_VERS" version="2.0">
<header><CREATION_DATE/><ORIGINATOR/></header><body><segment><metadata><OBJECT_NAME>ORBCOMM FM39</OBJECT_NAME><OBJECT_ID>2008-031D</OBJECT_ID><CENTER_NAME>EARTH</CENTER_NAME><REF_FRAME>TEME</REF_FRAME><TIME_SYSTEM>UTC</TIME_SYSTEM><MEAN_ELEMENT_THEORY>SGP4</MEAN_ELEMENT_THEORY></metadata><data><meanElements><EPOCH>2025-10-01T05:54:35.333856</EPOCH><MEAN_MOTION>14.79962444</MEAN_MOTION><ECCENTRICITY>.0006266</ECCENTRICITY><INCLINATION>48.4383</INCLINATION><RA_OF_ASC_NODE>210.9415</RA_OF_ASC_NODE><ARG_OF_PERICENTER>90.4728</ARG_OF_PERICENTER><MEAN_ANOMALY>269.6905</MEAN_ANOMALY></meanElements><tleParameters><EPHEMERIS_TYPE>0</EPHEMERIS_TYPE><CLASSIFICATION_TYPE>U</CLASSIFICATION_TYPE><NORAD_CAT_ID>33063</NORAD_CAT_ID><ELEMENT_SET_NO>999</ELEMENT_SET_NO><REV_AT_EPOCH>92950</REV_AT_EPOCH><BSTAR>.73156E-3</BSTAR><MEAN_MOTION_DOT>.5382E-4</MEAN_MOTION_DOT><MEAN_MOTION_DDOT>0</MEAN_MOTION_DDOT></tleParameters></data></segment></body></omm>

</ndm>
