ORBCOMM FM33            
1 25983U 99065D   25274.23278178  .00003719  00000+0  12077-2 0  9992
2 25983  45.0268 214.7031 0008861 249.4227 110.5672 14.40240362351350
ORBCOMM FM36            
1 25984U 99065E   25274.40467428  .00003217  00000+0  10912-2 0  9999
2 25984  45.0391 307.4398 0001726 175.2600 184.8265 14.38400569349711
ORBCOMM FM35            
1 25985U 99065F   25274.39183845  .00002641  00000+0  92360-3 0  9994
2 25985  45.0396 313.3860 0005576 227.2571 132.7809 14.37338363350066
ORBCOMM FM34            
1 25986U 99065G   25274.42652616  .00002577  00000+0  90265-3 0  9996
2 25986  45.0389 313.6767 0004175 191.6565 168.4187 14.37332428350183
ORBCOMM FM38            
1 33060U 08031A   25274.43750397  .00005650  00000+0  73452-3 0  9991
2 33060  48.4386 168.7526 0004705 141.7734 218.3516 14.81772813930500
ORBCOMM FM41            
1 33061U 08031B   25274.50306544  .00005192  00000+0  68415-3 0  9995
2 33061  48.4421 176.5900 0003831 125.1339  45.9362 14.81343442929996
ORBCOMM FM29            
1 33062U 08031C   25274.47935034  .00005499  00000+0  72091-3 0  9999
2 33062  48.4372 184.3779 0005502 123.0905  47.2505 14.81464284929909
ORBCOMM FM39            
1 33063U 08031D   25274.24624229  .00005382  00000+0  73156-3 0  9990
2 33063  48.4383 210.9415 0006266  90.4728 269.6905 14.79962444929501
